{"type": "FeatureCollection", "features": [ {"type": "Feature", "properties": {"norad_id": 43107, "name": "BEIDOU-3 M7 (C27)", "group": "gnss", "lat": -25.16780173310085, "lon": 147.91597241101482, "alt_km": 21537.933529175596, "timestamp": "2025-12-26T05:31:12.749824+00:00", "meta": {"OBJECT_NAME": "BEIDOU-3 M7 (C27)", "OBJECT_ID": "2018-003A", "EPOCH": "2025-12-23T05:31:08.538816", "MEAN_MOTION": 1.86232625, "ECCENTRICITY": 0.0002961, "INCLINATION": 54.4874, "RA_OF_ASC_NODE": 308.4506, "ARG_OF_PERICENTER": 66.5422, "MEAN_ANOMALY": 293.4915, "EPHEMERIS_TYPE": 0, "CLASSIFICATION_TYPE": "U", "NORAD_CAT_ID": 43107, "ELEMENT_SET_NO": 999, "REV_AT_EPOCH": 5407, "BSTAR": 0, "MEAN_MOTION_DOT": -5.5e-07, "MEAN_MOTION_DDOT": 0}, "tle": {"line1": "1 43107U 18003A   25357.22995994 -.00000055  00000+0  00000+0 0  9997", "line2": "2 43107  54.4874 308.4506 0002961  66.5422 293.4915  1.86232625 54072"}}, "geometry": {"type": "Point", "coordinates": [147.91597241101482, -25.16780173310085]}}, {"type": "Feature", "properties": {"norad_id": 43108, "name": "BEIDOU-3 M8 (C28)", "group": "gnss", "lat": -49.10200499464694, "lon": -176.21241762592334, "alt_km": 21522.567443477346, "timestamp": "2025-12-26T05:31:12.749835+00:00", "meta": {"OBJECT_NAME": "BEIDOU-3 M8 (C28)", "OBJECT_ID": "2018-003B", "EPOCH": "2025-12-24T05:58:21.185184", "MEAN_MOTION": 1.86231107, "ECCENTRICITY": 0.00045887, "INCLINATION": 54.4794, "RA_OF_ASC_NODE": 308.398, "ARG_OF_PERICENTER": 279.3969, "MEAN_ANOMALY": 80.5568, "EPHEMERIS_TYPE": 0, "CLASSIFICATION_TYPE": "U", "NORAD_CAT_ID": 43108, "ELEMENT_SET_NO": 999, "REV_AT_EPOCH": 5410, "BSTAR": 0, "MEAN_MOTION_DOT": -5.4e-07, "MEAN_MOTION_DDOT": 0}, "tle": {"line1": "1 43108U 18003B   25358.24885631 -.00000054  00000+0  00000+0 0  9996", "line2": "2 43108  54.4794 308.3980 0004588 279.3969  80.5568  1.86231107 54103"}}, "geometry": {"type": "Point", "coordinates": [-176.21241762592334, -49.10200499464694]}}, {"type": "Feature", "properties": {"norad_id": 43207, "name": "BEIDOU-3 M4 (C22)", "group": "gnss", "lat": -38.38292784434111, "lon": 37.26985207574633, "alt_km": 21525.4011166501, "timestamp": "2025-12-26T05:31:12.749846+00:00", "meta": {"OBJECT_NAME": "BEIDOU-3 M4 (C22)", "OBJECT_ID": "2018-018A", "EPOCH": "2025-12-24T16:34:51.783168", "MEAN_MOTION": 1.86231226, "ECCENTRICITY": 0.0004181, "INCLINATION": 56.4953, "RA_OF_ASC_NODE": 68.9094, "ARG_OF_PERICENTER": 3.1896, "MEAN_ANOMALY": 356.8673, "EPHEMERIS_TYPE": 0, "CLASSIFICATION_TYPE": "U", "NORAD_CAT_ID": 43207, "ELEMENT_SET_NO": 999, "REV_AT_EPOCH": 5349, "BSTAR": 0, "MEAN_MOTION_DOT": -2.4e-07, "MEAN_MOTION_DDOT": 0}, "tle": {"line1": "1 43207U 18018A   25358.69087712 -.00000024  00000+0  00000+0 0  9992", "line2": "2 43207  56.4953  68.9094 0004181   3.1896 356.8673  1.86231226 53497"}}, "geometry": {"type": "Point", "coordinates": [37.26985207574633, -38.38292784434111]}}, {"type": "Feature", "properties": {"norad_id": 43208, "name": "BEIDOU-3 M3 (C21)", "group": "gnss", "lat": -56.40982475803736, "lon": -26.12553173544393, "alt_km": 21520.395153229765, "timestamp": "2025-12-26T05:31:12.749857+00:00", "meta": {"OBJECT_NAME": "BEIDOU-3 M3 (C21)", "OBJECT_ID": "2018-018B", "EPOCH": "2025-12-24T05:17:24.775296", "MEAN_MOTION": 1.86231452, "ECCENTRICITY": 0.00071097, "INCLINATION": 56.4941, "RA_OF_ASC_NODE": 68.9291, "ARG_OF_PERICENTER": 313.8135, "MEAN_ANOMALY": 46.182, "EPHEMERIS_TYPE": 0, "CLASSIFICATION_TYPE": "U", "NORAD_CAT_ID": 43208, "ELEMENT_SET_NO": 999, "REV_AT_EPOCH": 5348, "BSTAR": 0, "MEAN_MOTION_DOT": -2.4e-07, "MEAN_MOTION_DDOT": 0}, "tle": {"line1": "1 43208U 18018B   25358.22042564 -.00000024  00000+0  00000+0 0  9998", "line2": "2 43208  56.4941  68.9291 0007109 313.8135  46.1820  1.86231452 53487"}}, "geometry": {"type": "Point", "coordinates": [-26.12553173544393, -56.40982475803736]}}, {"type": "Feature", "properties": {"norad_id": 43245, "name": "BEIDOU-3 M9 (C29)", "group": "gnss", "lat": 43.38338548931857, "lon": 83.33329705721442, "alt_km": 21527.322067506277, "timestamp": "2025-12-26T05:31:12.749868+00:00", "meta": {"OBJECT_NAME": "BEIDOU-3 M9 (C29)", "OBJECT_ID": "2018-029A", "EPOCH": "2025-12-24T23:22:05.655648", "MEAN_MOTION": 1.86228303, "ECCENTRICITY": 0.00015566, "INCLINATION": 54.3546, "RA_OF_ASC_NODE": 306.0421, "ARG_OF_PERICENTER": 290.0356, "MEAN_ANOMALY": 69.9568, "EPHEMERIS_TYPE": 0, "CLASSIFICATION_TYPE": "U", "NORAD_CAT_ID": 43245, "ELEMENT_SET_NO": 999, "REV_AT_EPOCH": 5265, "BSTAR": 0, "MEAN_MOTION_DOT": -5.2e-07, "MEAN_MOTION_DDOT": 0}, "tle": {"line1": "1 43245U 18029A   25358.97367657 -.00000052  00000+0  00000+0 0  9997", "line2": "2 43245  54.3546 306.0421 0001556 290.0356  69.9568  1.86228303 52659"}}, "geometry": {"type": "Point", "coordinates": [83.33329705721442, 43.38338548931857]}}, {"type": "Feature", "properties": {"norad_id": 43246, "name": "BEIDOU-3 M10 (C30)", "group": "gnss", "lat": 11.49009122547722, "lon": 117.62947282177241, "alt_km": 21538.563734733747, "timestamp": "2025-12-26T05:31:12.749879+00:00", "meta": {"OBJECT_NAME": "BEIDOU-3 M10 (C30)", "OBJECT_ID": "2018-029B", "EPOCH": "2025-12-25T10:42:00.123264", "MEAN_MOTION": 1.86229201, "ECCENTRICITY": 0.0004359, "INCLINATION": 54.3517, "RA_OF_ASC_NODE": 306.0524, "ARG_OF_PERICENTER": 3.5197, "MEAN_ANOMALY": 356.493, "EPHEMERIS_TYPE": 0, "CLASSIFICATION_TYPE": "U", "NORAD_CAT_ID": 43246, "ELEMENT_SET_NO": 999, "REV_AT_EPOCH": 5264, "BSTAR": 0, "MEAN_MOTION_DOT": -5.3e-07, "MEAN_MOTION_DDOT": 0}, "tle": {"line1": "1 43246U 18029B   25359.44583476 -.00000053  00000+0  00000+0 0  9991", "line2": "2 43246  54.3517 306.0524 0004359   3.5197 356.4930  1.86229201 52640"}}, "geometry": {"type": "Point", "coordinates": [117.62947282177241, 11.49009122547722]}}, {"type": "Feature", "properties": {"norad_id": 43286, "name": "IRNSS-1I", "group": "gnss", "lat": 11.528472692159664, "lon": -124.50373779768307, "alt_km": 35701.36094109569, "timestamp": "2025-12-26T05:31:12.749890+00:00", "meta": {"OBJECT_NAME": "IRNSS-1I", "OBJECT_ID": "2018-035A", "EPOCH": "2025-12-24T19:28:38.810784", "MEAN_MOTION": 1.00274895, "ECCENTRICITY": 0.00219107, "INCLINATION": 29.1759, "RA_OF_ASC_NODE": 76.9122, "ARG_OF_PERICENTER": 182.7933, "MEAN_ANOMALY": 181.0586, "EPHEMERIS_TYPE": 0, "CLASSIFICATION_TYPE": "U", "NORAD_CAT_ID": 43286, "ELEMENT_SET_NO": 999, "REV_AT_EPOCH": 2833, "BSTAR": 0, "MEAN_MOTION_DOT": 9.2e-07, "MEAN_MOTION_DDOT": 0}, "tle": {"line1": "1 43286U 18035A   25358.81156031  .00000092  00000+0  00000+0 0  9997", "line2": "2 43286  29.1759  76.9122 0021910 182.7933 181.0586  1.00274895 28332"}}, "geometry": {"type": "Point", "coordinates": [-124.50373779768307, 11.528472692159664]}}, {"type": "Feature", "properties": {"norad_id": 43508, "name": "COSMOS 2527 (756)", "group": "gnss", "lat": -45.98201174486895, "lon": -72.16360660193297, "alt_km": 19112.46635271053, "timestamp": "2025-12-26T05:31:12.749901+00:00", "meta": {"OBJECT_NAME": "COSMOS 2527 (756)", "OBJECT_ID": "2018-053A", "EPOCH": "2025-12-23T02:40:53.485824", "MEAN_MOTION": 2.13102391, "ECCENTRICITY": 0.00089977, "INCLINATION": 65.4775, "RA_OF_ASC_NODE": 79.785, "ARG_OF_PERICENTER": 227.5336, "MEAN_ANOMALY": 132.4355, "EPHEMERIS_TYPE": 0, "CLASSIFICATION_TYPE": "U", "NORAD_CAT_ID": 43508, "ELEMENT_SET_NO": 999, "REV_AT_EPOCH": 5852, "BSTAR": 0, "MEAN_MOTION_DOT": 1e-08, "MEAN_MOTION_DDOT": 0}, "tle": {"line1": "1 43508U 18053A   25357.11173016  .00000001  00000+0  00000+0 0  9998", "line2": "2 43508  65.4775  79.7850 0008997 227.5336 132.4355  2.13102391 58528"}}, "geometry": {"type": "Point", "coordinates": [-72.16360660193297, -45.98201174486895]}}, {"type": "Feature", "properties": {"norad_id": 43539, "name": "BEIDOU-2 IGSO-7 (C16)", "group": "gnss", "lat": 43.90101596036484, "lon": -57.555173889465706, "alt_km": 35935.30924781636, "timestamp": "2025-12-26T05:31:12.749914+00:00", "meta": {"OBJECT_NAME": "BEIDOU-2 IGSO-7 (C16)", "OBJECT_ID": "2018-057A", "EPOCH": "2025-12-23T21:03:51.666912", "MEAN_MOTION": 1.00254881, "ECCENTRICITY": 0.00930582, "INCLINATION": 55.1784, "RA_OF_ASC_NODE": 164.5741, "ARG_OF_PERICENTER": 235.1099, "MEAN_ANOMALY": 119.1175, "EPHEMERIS_TYPE": 0, "CLASSIFICATION_TYPE": "U", "NORAD_CAT_ID": 43539, "ELEMENT_SET_NO": 999, "REV_AT_EPOCH": 2736, "BSTAR": 0, "MEAN_MOTION_DOT": -6.1e-07, "MEAN_MOTION_DDOT": 0}, "tle": {"line1": "1 43539U 18057A   25357.87768133 -.00000061  00000+0  00000+0 0  9996", "line2": "2 43539  55.1784 164.5741 0093058 235.1099 119.1175  1.00254881 27360"}}, "geometry": {"type": "Point", "coordinates": [-57.555173889465706, 43.90101596036484]}}, {"type": "Feature", "properties": {"norad_id": 43564, "name": "GSAT0221 (GALILEO 25)", "group": "gnss", "lat": 41.85496059811647, "lon": 131.19719082194126, "alt_km": 23235.643616528752, "timestamp": "2025-12-26T05:31:12.749927+00:00", "meta": {"OBJECT_NAME": "GSAT0221 (GALILEO 25)", "OBJECT_ID": "2018-060A", "EPOCH": "2025-12-24T06:17:56.044608", "MEAN_MOTION": 1.70475708, "ECCENTRICITY": 0.00067277, "INCLINATION": 57.2252, "RA_OF_ASC_NODE": 346.5066, "ARG_OF_PERICENTER": 286.73, "MEAN_ANOMALY": 73.2039, "EPHEMERIS_TYPE": 0, "CLASSIFICATION_TYPE": "U", "NORAD_CAT_ID": 43564, "ELEMENT_SET_NO": 999, "REV_AT_EPOCH": 4618, "BSTAR": 0, "MEAN_MOTION_DOT": -6.1e-07, "MEAN_MOTION_DDOT": 0}, "tle": {"line1": "1 43564U 18060A   25358.26245422 -.00000061  00000+0  00000+0 0  9993", "line2": "2 43564  57.2252 346.5066 0006727 286.7300  73.2039  1.70475708 46187"}}, "geometry": {"type": "Point", "coordinates": [131.19719082194126, 41.85496059811647]}}]}